NORAD_CAT_ID,OBJECT_NAME,OBJECT_TYPE,EPOCH,MEAN_MOTION,ECCENTRICITY,INCLINATION,RA_OF_ASC_NODE,ARG_OF_PERICENTER,MEAN_ANOMALY,BSTAR,MEAN_MOTION_DOT,MEAN_MOTION_DDOT,TLE_LINE0,TLE_LINE1,TLE_LINE2,SEMIMAJOR_AXIS,PERIOD,APOGEE,PERIGEE,DECAYED
55315.0,STARLINK-4623,PAYLOAD,2023-06-06 00:00:00,15.1700789,0.0002994,70.0013,45.601,277.4511,201.4626,-0.047717,-0.00878684,0.0,0 STARLINK-4623,1 55315U 23010AY  23157.00001157 -.00878684  00000-0 -47717-1 0  9997,2 55315  70.0013  45.6010 0002994 277.4511 201.4626 15.17007890  1302,6893.027,94.924,516.955,512.828,0.0
55315.0,STARLINK-4623,PAYLOAD,2023-06-06 14:00:01,15.15883145,0.0003131,70.0012,44.0882,271.593,150.9526,-0.050029,-0.00891173,0.0,0 STARLINK-4623,1 55315U 23010AY  23157.58334491 -.00891173  00000-0 -50029-1 0  9998,2 55315  70.0012  44.0882 0003131 271.5930 150.9526 15.15883145 22106,6896.436,94.994,520.46,516.141,0.0
55315.0,STARLINK-4623,PAYLOAD,2023-06-06 22:00:00,15.15219857,0.0003113,70.0012,43.2251,275.6717,165.0359,-0.05136,-0.008973,0.0,0 STARLINK-4623,1 55315U 23010AY  23157.91667824 -.00897300  00000-0 -51360-1 0  9991,2 55315  70.0012  43.2251 0003113 275.6717 165.0359 15.15219857  1308,6898.448,95.036,522.461,518.166,0.0
55315.0,STARLINK-4623,PAYLOAD,2023-06-07 06:00:00,15.14610595,0.0003026,70.0009,42.3626,278.102,179.9537,-0.056253,-0.00960752,0.0,0 STARLINK-4623,1 55315U 23010AY  23158.25001157 -.00960752  00000-0 -56253-1 0  9998,2 55315  70.0009  42.3626 0003026 278.1020 179.9537 15.14610595 22205,6900.298,95.074,524.251,520.075,0.0
55315.0,STARLINK-4623,PAYLOAD,2023-06-07 14:00:01,15.13933037,0.0003045,70.0012,41.5012,271.6656,202.9781,-0.053609,-0.00902653,0.0,0 STARLINK-4623,1 55315U 23010AY  23158.58334491 -.00902653  00000-0 -53609-1 0  9992,2 55315  70.0012  41.5012 0003045 271.6656 202.9781 15.13933037  1307,6902.357,95.116,526.323,522.12,0.0
55315.0,STARLINK-4623,PAYLOAD,2023-06-07 22:00:00,15.1325975,0.0003032,70.0011,40.6406,275.9745,214.4871,-0.053921,-0.00891677,0.0,0 STARLINK-4623,1 55315U 23010AY  23158.91667824 -.00891677  00000-0 -53921-1 0  9998,2 55315  70.0011  40.6406 0003032 275.9745 214.4871 15.13259750 22309,6904.404,95.159,528.362,524.175,0.0
55315.0,STARLINK-4623,PAYLOAD,2023-06-08 14:00:01,15.11981976,0.0002977,70.0012,38.922,270.7329,248.9682,-0.057292,-0.00912479,0.0,0 STARLINK-4623,1 55315U 23010AY  23159.58334491 -.00912479  00000-0 -57292-1 0  9992,2 55315  70.0012  38.9220 0002977 270.7329 248.9682 15.11981976 22405,6908.293,95.239,532.215,528.102,0.0
55315.0,STARLINK-4623,PAYLOAD,2023-06-08 22:00:00,15.11299357,0.0002988,70.0012,38.0639,275.6482,257.5267,-0.056502,-0.00885006,0.0,0 STARLINK-4623,1 55315U 23010AY  23159.91667824 -.00885006  00000-0 -56502-1 0  9996,2 55315  70.0012  38.0639 0002988 275.6482 257.5267 15.11299357  1302,6910.373,95.282,534.303,530.173,0.0
55315.0,STARLINK-4623,PAYLOAD,2023-06-09 06:00:00,15.1069683,0.0002911,70.001,37.2067,276.2958,269.5321,-0.062894,-0.00962386,0.0,0 STARLINK-4623,1 55315U 23010AY  23160.25001157 -.00962386  00000-0 -62894-1 0  9994,2 55315  70.0010  37.2067 0002911 276.2958 269.5321 15.10696830 22502,6912.211,95.32,536.088,532.063,0.0
55315.0,STARLINK-4623,PAYLOAD,2023-06-09 14:00:01,15.10028981,0.0002967,70.0014,36.3506,264.037,293.6812,-0.060932,-0.00918716,0.0,0 STARLINK-4623,1 55315U 23010AY  23160.58334491 -.00918716  00000-0 -60932-1 0  9999,2 55315  70.0014  36.3506 0002967 264.0370 293.6812 15.10028981  1302,6914.249,95.362,538.165,534.062,0.0
55315.0,STARLINK-4623,PAYLOAD,2023-06-09 22:00:00,15.09339426,0.0002954,70.0014,35.4951,269.4812,299.3662,-0.059189,-0.00878625,0.0,0 STARLINK-4623,1 55315U 23010AY  23160.91667824 -.00878625  00000-0 -59189-1 0  9991,2 55315  70.0014  35.4951 0002954 269.4812 299.3662 15.09339426 22601,6916.354,95.406,540.262,536.176,0.0
55315.0,STARLINK-4623,PAYLOAD,2023-06-10 14:00:01,15.08075471,0.0003006,70.0016,33.7872,263.1663,325.5294,-0.064747,-0.00924721,0.0,0 STARLINK-4623,1 55315U 23010AY  23161.58334491 -.00924721  00000-0 -64747-1 0  9991,2 55315  70.0016  33.7872 0003006 263.1663 325.5294 15.08075471 22700,6920.218,95.486,544.163,540.003,0.0
55315.0,STARLINK-4623,PAYLOAD,2023-06-10 22:00:00,15.07380573,0.0002972,70.0017,32.9343,269.4708,328.008,-0.062084,-0.00873828,0.0,0 STARLINK-4623,1 55315U 23010AY  23161.91667824 -.00873828  00000-0 -62084-1 0  9990,2 55315  70.0017  32.9343 0002972 269.4708 328.0080 15.07380573  1300,6922.345,95.53,546.267,542.153,0.0
55315.0,STARLINK-4623,PAYLOAD,2023-06-11 14:00:01,15.06120086,0.0003022,70.0017,31.2316,263.1654,349.4673,-0.068476,-0.00927111,0.0,0 STARLINK-4623,1 55315U 23010AY  23162.58334491 -.00927111  00000-0 -68476-1 0  9991,2 55315  70.0017  31.2316 0003022 263.1654 349.4673 15.06120086 22858,6926.207,95.61,550.165,545.978,0.0
55315.0,STARLINK-4623,PAYLOAD,2023-06-11 22:00:00,15.05422706,0.0003,70.0018,30.3813,269.7491,349.3205,-0.065214,-0.00870683,0.0,0 STARLINK-4623,1 55315U 23010AY  23162.91667824 -.00870683  00000-0 -65214-1 0  9995,2 55315  70.0018  30.3813 0003000 269.7491 349.3205 15.05422706  1308,6928.345,95.654,552.289,548.132,0.0
55315.0,STARLINK-4623,PAYLOAD,2023-06-12 14:00:01,15.04167799,0.0003075,70.0018,28.6836,263.2276,6.3635,-0.072822,-0.00934824,0.0,0 STARLINK-4623,1 55315U 23010AY  23163.58335648 -.00934824  00000-0 -72822-1 0  9996,2 55315  70.0018  28.6836 0003075 263.2276   6.3635 15.04167799 23000,6932.198,95.734,556.195,551.932,0.0
55315.0,STARLINK-4623,PAYLOAD,2023-06-13 00:00:00,15.03318649,0.0003092,70.0019,27.6241,272.121,92.3837,-0.070189,-0.00884632,0.0,0 STARLINK-4623,1 55315U 23010AY  23164.00001157 -.00884632  00000-0 -70189-1 0  9994,2 55315  70.0019  27.6241 0003092 272.1210  92.3837 15.03318649  1305,6934.809,95.788,558.818,554.529,0.0
55315.0,STARLINK-4623,PAYLOAD,2023-06-13 14:00:01,15.02212734,0.0003077,70.0018,26.1433,262.6843,16.6999,-0.076945,-0.00948103,0.0,0 STARLINK-4623,1 55315U 23010AY  23164.58334491 -.00948103  00000-0 -76945-1 0  9997,2 55315  70.0018  26.1433 0003077 262.6843  16.6999 15.02212734  1305,6938.212,95.859,562.212,557.942,0.0
55315.0,STARLINK-4623,PAYLOAD,2023-06-13 22:00:00,15.01511597,0.0003051,70.0018,25.2982,269.1372,11.9903,-0.072459,-0.00871438,0.0,0 STARLINK-4623,1 55315U 23010AY  23164.91667824 -.00871438  00000-0 -72459-1 0  9995,2 55315  70.0018  25.2982 0003051 269.1372  11.9903 15.01511597 23209,6940.371,95.903,564.354,560.119,0.0
55315.0,STARLINK-4623,PAYLOAD,2023-06-14 14:00:01,15.00253114,0.0003112,70.0017,23.6106,264.8927,17.3081,-0.08047,-0.00941999,0.0,0 STARLINK-4623,1 55315U 23010AY  23165.58334491 -.00941999  00000-0 -80470-1 0  9992,2 55315  70.0017  23.6106 0003112 264.8927  17.3081 15.00253114 23309,6944.252,95.984,568.278,563.956,0.0
55315.0,STARLINK-4623,PAYLOAD,2023-06-14 22:00:00,14.99389369,0.0003129,70.0016,22.768,275.0059,6.6116,-0.011461,-0.00137932,0.0,0 STARLINK-4623,1 55315U 23010AY  23165.91667824 -.00137932  00000-0 -11461-1 0  9996,2 55315  70.0016  22.7680 0003129 275.0059   6.6116 14.99389369 23357,6946.919,96.039,570.957,566.61,0.0
55315.0,STARLINK-4623,PAYLOAD,2023-06-15 06:00:00,14.99320235,0.0003214,70.0013,21.926,274.0967,6.2092,-0.004278,-0.0005208,0.0,0 STARLINK-4623,1 55315U 23010AY  23166.25001157 -.00052080  00000-0 -42780-2 0  9994,2 55315  70.0013  21.9260 0003214 274.0967   6.2092 14.99320235 23403,6947.132,96.044,571.23,566.765,0.0
55315.0,STARLINK-4623,PAYLOAD,2023-06-15 14:00:01,14.99294646,0.0003236,70.0015,21.0845,268.1909,10.7587,0.0021762,0.00026631,0.0,0 STARLINK-4623,1 55315U 23010AY  23166.58334491  .00026631  00000-0  21762-2 0  9998,2 55315  70.0015  21.0845 0003236 268.1909  10.7587 14.99294646  1309,6947.211,96.045,571.325,566.828,0.0
55315.0,STARLINK-4623,PAYLOAD,2023-06-15 20:00:01,14.9931381,0.0003288,70.0014,20.4531,271.7577,276.1814,-0.0026556,-0.0003245,0.0,0 STARLINK-4623,1 55315U 23010AY  23166.83334491 -.00032450  00000-0 -26556-2 0  9990,2 55315  70.0014  20.4531 0003288 271.7577 276.1814 14.99313810 23491,6947.152,96.044,571.301,566.733,0.0
55315.0,STARLINK-4623,PAYLOAD,2023-06-16 14:00:01,14.99308769,0.0003318,70.0014,18.5591,266.9052,7.9943,0.0022231,0.0002722,0.0,0 STARLINK-4623,1 55315U 23010AY  23167.58334491  .00027220  00000-0  22231-2 0  9996,2 55315  70.0014  18.5591 0003318 266.9052   7.9943 14.99308769 23606,6947.168,96.044,571.338,566.728,0.0
55315.0,STARLINK-4623,PAYLOAD,2023-06-16 22:00:00,14.99324639,0.0003341,70.0012,17.7172,274.1078,359.4646,-0.0038565,-0.00046998,0.0,0 STARLINK-4623,1 55315U 23010AY  23167.91667824 -.00046998  00000-0 -38565-2 0  9994,2 55315  70.0012  17.7172 0003341 274.1078 359.4646 14.99324639  1307,6947.119,96.043,571.305,566.663,0.0
55315.0,STARLINK-4623,PAYLOAD,2023-06-17 06:00:02,14.99291001,0.0003316,70.001,16.8753,274.3369,357.952,-0.0030959,-0.00037764,0.0,0 STARLINK-4623,1 55315U 23010AY  23168.25002315 -.00037764  00000-0 -30959-2 0  9990,2 55315  70.0010  16.8753 0003316 274.3369 357.9520 14.99291001 23705,6947.223,96.045,571.391,566.784,0.0
55315.0,STARLINK-4623,PAYLOAD,2023-06-17 14:00:01,14.99283541,0.0003328,70.0012,16.0338,270.4402,0.3965,0.0010635,0.00012938,0.0,0 STARLINK-4623,1 55315U 23010AY  23168.58334491  .00012938  00000-0  10635-2 0  9992,2 55315  70.0012  16.0338 0003328 270.4402   0.3965 14.99283541  1300,6947.246,96.046,571.423,566.799,0.0
55315.0,STARLINK-4623,PAYLOAD,2023-06-17 20:48:08,14.99289299,0.0003015,69.9988,15.3184,264.7994,95.2821,-0.00010673,-1.399e-05,0.0,0 STARLINK-4623,1 55315U 23010AY  23168.86675952 -.00001399  00000-0 -10673-3 0  9997,2 55315  69.9988  15.3184 0003015 264.7994  95.2821 14.99289299 24096,6947.228,96.046,571.188,566.998,0.0
55315.0,STARLINK-4623,PAYLOAD,2023-06-18 00:00:18,14.99272808,0.0003455,69.9993,14.9806,275.5199,84.5567,-0.00028147,-3.534e-05,0.0,0 STARLINK-4623,1 55315U 23010AY  23169.00020907 -.00003534  00000-0 -28147-3 0  9996,2 55315  69.9993  14.9806 0003455 275.5199  84.5567 14.99272808 23829,6947.279,96.047,571.544,566.744,0.0
